start=new Date('2021-09-25T00:00:00.000Z').valueOf();
sats=[{"REV_AT_EPOCH":"7984","TLE_LINE1":"1 45533U 20025C   21267.56180088  .00005118  00000-0  36209-3 0  9991","PERIOD":"95.591","CENTER_NAME":"EARTH","EPOCH":"2021-09-24T13:28:59.596032","MEAN_MOTION_DDOT":"0.0000000000000","INCLINATION":"53.0546","OBJECT_ID":"2020-025C","GP_ID":"185427954","BSTAR":"0.00036209000000","SITE":"AFETR","RCS_SIZE":"LARGE","TIME_SYSTEM":"UTC","ECCENTRICITY":"0.00014000","PERIAPSIS":"546.193","SEMIMAJOR_AXIS":"6925.297","TLE_LINE2":"2 45533  53.0546 211.0922 0001400  62.8919 297.2212 15.06416747 79846","APOAPSIS":"548.132","CLASSIFICATION_TYPE":"U","OBJECT_TYPE":"PAYLOAD","ARG_OF_PERICENTER":"62.8919","FILE":"3126800","MEAN_ANOMALY":"297.2212","COUNTRY_CODE":"US","EPHEMERIS_TYPE":"0","NORAD_CAT_ID":"45533","OBJECT_NAME":"STARLINK-1339","MEAN_MOTION":"15.06416747","ELEMENT_SET_NO":"999","DECAY_DATE":null,"MEAN_ELEMENT_THEORY":"SGP4","REF_FRAME":"TEME","RA_OF_ASC_NODE":"211.0922","MEAN_MOTION_DOT":"0.00005118","LAUNCH_DATE":"2020-04-22"},{"MEAN_ANOMALY":"287.8265","FILE":"3126800","COUNTRY_CODE":"US","NORAD_CAT_ID":"45534","EPHEMERIS_TYPE":"0","APOAPSIS":"548.231","CLASSIFICATION_TYPE":"U","OBJECT_TYPE":"PAYLOAD","ARG_OF_PERICENTER":"72.2888","REF_FRAME":"TEME","RA_OF_ASC_NODE":"211.1225","MEAN_MOTION_DOT":"0.00000943","LAUNCH_DATE":"2020-04-22","OBJECT_NAME":"STARLINK-1341","MEAN_MOTION":"15.06408724","MEAN_ELEMENT_THEORY":"SGP4","DECAY_DATE":null,"ELEMENT_SET_NO":"999","PERIOD":"95.592","TLE_LINE1":"1 45534U 20025D   21267.55440821  .00000943  00000-0  82161-4 0  9995","CENTER_NAME":"EARTH","EPOCH":"2021-09-24T13:18:20.869344","REV_AT_EPOCH":"7984","ECCENTRICITY":"0.00015080","SEMIMAJOR_AXIS":"6925.322","PERIAPSIS":"546.142","TLE_LINE2":"2 45534  53.0538 211.1225 0001508  72.2888 287.8265 15.06408724 79843","OBJECT_ID":"2020-025D","INCLINATION":"53.0538","MEAN_MOTION_DDOT":"0.0000000000000","BSTAR":"0.00008216100000","GP_ID":"185426703","RCS_SIZE":"LARGE","SITE":"AFETR","TIME_SYSTEM":"UTC"},{"REV_AT_EPOCH":"7985","PERIOD":"95.592","TLE_LINE1":"1 45535U 20025E   21267.57284594  .00002040  00000-0  15577-3 0  9997","EPOCH":"2021-09-24T13:44:53.889216","CENTER_NAME":"EARTH","OBJECT_ID":"2020-025E","INCLINATION":"53.0547","MEAN_MOTION_DDOT":"0.0000000000000","SITE":"AFETR","RCS_SIZE":"LARGE","TIME_SYSTEM":"UTC","BSTAR":"0.00015577000000","GP_ID":"185386190","PERIAPSIS":"545.891","SEMIMAJOR_AXIS":"6925.321","ECCENTRICITY":"0.00018700","TLE_LINE2":"2 45535  53.0547 211.0414 0001870  62.3558 297.7620 15.06408985 79854","APOAPSIS":"548.481","ARG_OF_PERICENTER":"62.3558","CLASSIFICATION_TYPE":"U","OBJECT_TYPE":"PAYLOAD","FILE":"3126002","COUNTRY_CODE":"US","MEAN_ANOMALY":"297.7620","NORAD_CAT_ID":"45535","EPHEMERIS_TYPE":"0","OBJECT_NAME":"STARLINK-1350","MEAN_ELEMENT_THEORY":"SGP4","ELEMENT_SET_NO":"999","DECAY_DATE":null,"MEAN_MOTION":"15.06408985","RA_OF_ASC_NODE":"211.0414","REF_FRAME":"TEME","LAUNCH_DATE":"2020-04-22","MEAN_MOTION_DOT":"0.00002040"},{"PERIOD":"95.593","TLE_LINE1":"1 45536U 20025F   21267.57653912 -.00000583  00000-0 -20251-4 0  9990","CENTER_NAME":"EARTH","EPOCH":"2021-09-24T13:50:12.979968","REV_AT_EPOCH":"7926","ECCENTRICITY":"0.00017580","PERIAPSIS":"546.015","SEMIMAJOR_AXIS":"6925.367","TLE_LINE2":"2 45536  53.0531 211.0206 0001758  67.5798 292.5377 15.06393907 79269","OBJECT_ID":"2020-025F","MEAN_MOTION_DDOT":"0.0000000000000","INCLINATION":"53.0531","BSTAR":"-0.00002025100000","GP_ID":"185391087","RCS_SIZE":"LARGE","SITE":"AFETR","TIME_SYSTEM":"UTC","MEAN_ANOMALY":"292.5377","FILE":"3126086","COUNTRY_CODE":"US","NORAD_CAT_ID":"45536","EPHEMERIS_TYPE":"0","APOAPSIS":"548.450","OBJECT_TYPE":"PAYLOAD","CLASSIFICATION_TYPE":"U","ARG_OF_PERICENTER":"67.5798","REF_FRAME":"TEME","RA_OF_ASC_NODE":"211.0206","MEAN_MOTION_DOT":"-0.00000583","LAUNCH_DATE":"2020-04-22","OBJECT_NAME":"STARLINK-1352","MEAN_MOTION":"15.06393907","MEAN_ELEMENT_THEORY":"SGP4","DECAY_DATE":null,"ELEMENT_SET_NO":"999"},{"TLE_LINE1":"1 45537U 20025G   21267.92650390  .00009565  00000-0  52972-3 0  9998","PERIOD":"95.083","EPOCH":"2021-09-24T22:14:09.936960","CENTER_NAME":"EARTH","REV_AT_EPOCH":"8020","ECCENTRICITY":"0.00009980","PERIAPSIS":"521.931","SEMIMAJOR_AXIS":"6900.755","TLE_LINE2":"2 45537  53.0024 186.8494 0000998  25.6940 334.4101 15.14460144 80208","INCLINATION":"53.0024","MEAN_MOTION_DDOT":"0.0000000000000","OBJECT_ID":"2020-025G","GP_ID":"185428454","BSTAR":"0.00052972000000","SITE":"AFETR","RCS_SIZE":"LARGE","TIME_SYSTEM":"UTC","FILE":"3126800","COUNTRY_CODE":"US","MEAN_ANOMALY":"334.4101","EPHEMERIS_TYPE":"0","NORAD_CAT_ID":"45537","APOAPSIS":"523.309","OBJECT_TYPE":"PAYLOAD","CLASSIFICATION_TYPE":"U","ARG_OF_PERICENTER":"25.6940","REF_FRAME":"TEME","RA_OF_ASC_NODE":"186.8494","MEAN_MOTION_DOT":"0.00009565","LAUNCH_DATE":"2020-04-22","OBJECT_NAME":"STARLINK-1353","MEAN_MOTION":"15.14460144","DECAY_DATE":null,"ELEMENT_SET_NO":"999","MEAN_ELEMENT_THEORY":"SGP4"},{"MEAN_ELEMENT_THEORY":"SGP4","DECAY_DATE":null,"ELEMENT_SET_NO":"999","MEAN_MOTION":"15.06395458","OBJECT_NAME":"STARLINK-1362","LAUNCH_DATE":"2020-04-22","MEAN_MOTION_DOT":"-0.00000096","RA_OF_ASC_NODE":"211.1967","REF_FRAME":"TEME","ARG_OF_PERICENTER":"77.2906","OBJECT_TYPE":"PAYLOAD","CLASSIFICATION_TYPE":"U","APOAPSIS":"548.484","EPHEMERIS_TYPE":"0","NORAD_CAT_ID":"45538","FILE":"3126800","COUNTRY_CODE":"US","MEAN_ANOMALY":"282.8286","SITE":"AFETR","RCS_SIZE":"LARGE","TIME_SYSTEM":"UTC","BSTAR":"0.00001245300000","GP_ID":"185427203","OBJECT_ID":"2020-025H","MEAN_MOTION_DDOT":"0.0000000000000","INCLINATION":"53.0545","TLE_LINE2":"2 45538  53.0545 211.1967 0001815  77.2906 282.8286 15.06395458 79842","SEMIMAJOR_AXIS":"6925.362","PERIAPSIS":"545.971","ECCENTRICITY":"0.00018150","REV_AT_EPOCH":"7984","CENTER_NAME":"EARTH","EPOCH":"2021-09-24T12:51:49.714848","PERIOD":"95.592","TLE_LINE1":"1 45538U 20025H   21267.53599207 -.00000096  00000-0  12453-4 0  9997"},{"PERIOD":"91.634","TLE_LINE1":"1 45539U 20025J   21267.88338354  .00015467  00000-0  12302-3 0  9999","EPOCH":"2021-09-24T21:12:04.337856","CENTER_NAME":"EARTH","REV_AT_EPOCH":"8086","SEMIMAJOR_AXIS":"6732.841","PERIAPSIS":"353.147","ECCENTRICITY":"0.00023150","TLE_LINE2":"2 45539  53.0562 139.0560 0002315  25.1887 334.9243 15.71466820 80865","OBJECT_ID":"2020-025J","INCLINATION":"53.0562","MEAN_MOTION_DDOT":"0.0000000000000","SITE":"AFETR","RCS_SIZE":"LARGE","TIME_SYSTEM":"UTC","BSTAR":"0.00012302000000","GP_ID":"185427453","FILE":"3126800","COUNTRY_CODE":"US","MEAN_ANOMALY":"334.9243","NORAD_CAT_ID":"45539","EPHEMERIS_TYPE":"0","APOAPSIS":"356.265","ARG_OF_PERICENTER":"25.1887","OBJECT_TYPE":"PAYLOAD","CLASSIFICATION_TYPE":"U","RA_OF_ASC_NODE":"139.0560","REF_FRAME":"TEME","LAUNCH_DATE":"2020-04-22","MEAN_MOTION_DOT":"0.00015467","OBJECT_NAME":"STARLINK-1367","MEAN_ELEMENT_THEORY":"SGP4","DECAY_DATE":null,"ELEMENT_SET_NO":"999","MEAN_MOTION":"15.71466820"},{"REV_AT_EPOCH":"7984","TLE_LINE1":"1 45540U 20025K   21267.58021471 -.00004488  00000-0 -28245-3 0  9993","PERIOD":"95.591","EPOCH":"2021-09-24T13:55:30.550944","CENTER_NAME":"EARTH","MEAN_MOTION_DDOT":"0.0000000000000","INCLINATION":"53.0562","OBJECT_ID":"2020-025K","SITE":"AFETR","RCS_SIZE":"LARGE","TIME_SYSTEM":"UTC","GP_ID":"185428202","BSTAR":"-0.00028245000000","SEMIMAJOR_AXIS":"6925.293","PERIAPSIS":"545.859","ECCENTRICITY":"0.00018760","TLE_LINE2":"2 45540  53.0562 211.0057 0001876  59.3700 300.7474 15.06418004 79845","APOAPSIS":"548.458","ARG_OF_PERICENTER":"59.3700","CLASSIFICATION_TYPE":"U","OBJECT_TYPE":"PAYLOAD","FILE":"3126800","COUNTRY_CODE":"US","MEAN_ANOMALY":"300.7474","NORAD_CAT_ID":"45540","EPHEMERIS_TYPE":"0","OBJECT_NAME":"STARLINK-1368","ELEMENT_SET_NO":"999","DECAY_DATE":null,"MEAN_ELEMENT_THEORY":"SGP4","MEAN_MOTION":"15.06418004","RA_OF_ASC_NODE":"211.0057","REF_FRAME":"TEME","LAUNCH_DATE":"2020-04-22","MEAN_MOTION_DOT":"-0.00004488"},{"REV_AT_EPOCH":"7925","EPOCH":"2021-09-24T14:00:48.437280","CENTER_NAME":"EARTH","PERIOD":"95.592","TLE_LINE1":"1 45541U 20025L   21267.58389395  .00000079  00000-0  24181-4 0  9992","SITE":"AFETR","TIME_SYSTEM":"UTC","RCS_SIZE":"LARGE","BSTAR":"0.00002418100000","GP_ID":"185390641","OBJECT_ID":"2020-025L","INCLINATION":"53.0531","MEAN_MOTION_DDOT":"0.0000000000000","TLE_LINE2":"2 45541  53.0531 210.9890 0001629  64.0329 296.0827 15.06406635 79252","SEMIMAJOR_AXIS":"6925.328","PERIAPSIS":"546.065","ECCENTRICITY":"0.00016290","ARG_OF_PERICENTER":"64.0329","CLASSIFICATION_TYPE":"U","OBJECT_TYPE":"PAYLOAD","APOAPSIS":"548.321","NORAD_CAT_ID":"45541","EPHEMERIS_TYPE":"0","MEAN_ANOMALY":"296.0827","FILE":"3126109","COUNTRY_CODE":"US","MEAN_ELEMENT_THEORY":"SGP4","ELEMENT_SET_NO":"999","DECAY_DATE":null,"MEAN_MOTION":"15.06406635","OBJECT_NAME":"STARLINK-1369","LAUNCH_DATE":"2020-04-22","MEAN_MOTION_DOT":"0.00000079","RA_OF_ASC_NODE":"210.9890","REF_FRAME":"TEME"},{"PERIOD":"95.592","TLE_LINE1":"1 45542U 20025M   21267.28533957 -.00000052  00000-0  15408-4 0  9999","CENTER_NAME":"EARTH","EPOCH":"2021-09-24T06:50:53.338848","REV_AT_EPOCH":"7921","ECCENTRICITY":"0.00019460","SEMIMAJOR_AXIS":"6925.329","PERIAPSIS":"545.847","TLE_LINE2":"2 45542  53.0542 212.3248 0001946  67.1727 292.9467 15.06406248 79217","OBJECT_ID":"2020-025M","INCLINATION":"53.0542","MEAN_MOTION_DDOT":"0.0000000000000","BSTAR":"0.00001540800000","GP_ID":"185398693","RCS_SIZE":"LARGE","SITE":"AFETR","TIME_SYSTEM":"UTC","COUNTRY_CODE":"US","FILE":"3126395","MEAN_ANOMALY":"292.9467","EPHEMERIS_TYPE":"0","NORAD_CAT_ID":"45542","APOAPSIS":"548.542","CLASSIFICATION_TYPE":"U","OBJECT_TYPE":"PAYLOAD","ARG_OF_PERICENTER":"67.1727","REF_FRAME":"TEME","RA_OF_ASC_NODE":"212.3248","MEAN_MOTION_DOT":"-0.00000052","LAUNCH_DATE":"2020-04-22","OBJECT_NAME":"STARLINK-1371","MEAN_MOTION":"15.06406248","MEAN_ELEMENT_THEORY":"SGP4","ELEMENT_SET_NO":"999","DECAY_DATE":null}];
